LEMUR-2-PETERG          
1 42841U 17042S   26068.48235713  .00023240  00000+0  81076-3 0  9993
2 42841  97.3980 253.6596 0003700 341.6938  18.4169 15.29611459473171
STARLINK-32644          
1 62151U 24224N   26068.27329560  .00035672  00000+0  13000-2 0  9993
2 62151  42.9931 160.6816 0000611 345.6563  14.4271 15.27569015 72417
